OBJECT_NAME,OBJECT_ID,EPOCH,MEAN_MOTION,ECCENTRICITY,INCLINATION,RA_OF_ASC_NODE,ARG_OF_PERICENTER,MEAN_ANOMALY,EPHEMERIS_TYPE,CLASSIFICATION_TYPE,NORAD_CAT_ID,ELEMENT_SET_NO,REV_AT_EPOCH,BSTAR,MEAN_MOTION_DOT,MEAN_MOTION_DDOT
ROCK,2024-149G,2026-06-28T17:58:46.734528,15.40005062,.00020957,97.3782,263.2241,164.3844,195.7467,0,U,60474,999,10404,.35340141E-3,.14028E-3,0
CONNECTA IOT-3,2024-149H,2026-06-28T22:32:08.278944,15.23639448,.00023704,97.3737,255.7815,189.9084,170.2107,0,U,60475,999,10359,.16032639E-3,.3771E-4,0
QUBE,2024-149J,2026-06-28T19:30:58.180896,15.47746307,.00026884,97.3784,266.4737,165.0830,195.0500,0,U,60476,999,10426,.47573138E-3,.24596E-3,0
WREN-1,2024-149L,2026-06-28T18:02:53.505024,15.42001226,.00042438,97.3775,263.9884,202.1844,157.9221,0,U,60478,999,10410,.4617773E-3,.19627E-3,0
TOMORROW-S1,2024-149M,2026-06-28T22:51:37.794528,15.32880389,.00027804,97.3755,260.3883,171.7261,188.4028,0,U,60479,999,10389,.22794334E-3,.7161E-4,0
FLOCK 4BE-18,2024-149N,2026-06-28T16:43:04.341792,15.42216048,.00039318,97.3733,263.5482,192.9321,167.1826,0,U,60480,999,10408,.38360592E-3,.164E-3,0
FLOCK 4BE-7,2024-149P,2026-06-28T17:09:55.104768,15.40772881,.00031579,97.3764,262.8848,192.3147,167.8022,0,U,60481,999,10402,.49294377E-3,.20119E-3,0
TOMORROW-S2,2024-149T,2026-06-28T17:19:12.020160,15.32914138,.00022637,97.3824,260.6579,195.3646,164.7528,0,U,60485,999,10385,.23128063E-3,.7274E-4,0
FLOCK 4BE-36,2024-149U,2026-06-28T17:26:11.256288,15.43057428,.00033733,97.3750,264.2950,201.7978,158.3127,0,U,60486,999,10413,.31553568E-3,.13855E-3,0
FLOCK 4BE-25,2024-149V,2026-06-28T12:45:22.094208,15.39120394,.00024376,97.3805,262.7600,181.6262,178.4976,0,U,60487,999,10398,.33330404E-3,.12845E-3,0
FLOCK 4BE-31,2024-149W,2026-06-28T17:55:32.873664,15.44532703,.00026017,97.3807,265.2067,194.1921,165.9255,0,U,60488,999,10416,.41532161E-3,.19208E-3,0
FLOCK 4BE-20,2024-149X,2026-06-28T04:12:40.031712,15.38339947,.00035059,97.3699,261.2520,202.2079,157.9015,0,U,60489,999,10390,.40583283E-3,.1527E-3,0
FLOCK 4BE-23,2024-149Y,2026-06-28T18:05:49.990848,15.37955249,.00031251,97.3788,262.2166,204.9413,155.1681,0,U,60490,999,10397,.33925417E-3,.12588E-3,0
FLOCK 4BE-17,2024-149AA,2026-06-28T17:20:01.515264,15.40105977,.00031125,97.3781,263.1840,190.9686,169.1493,0,U,60492,999,10403,.35425764E-3,.1411E-3,0
NUSAT-50 (NANCY ROMAN),2024-149AB,2026-06-28T22:35:13.525728,15.30054834,.0004374,97.3795,261.1158,141.4444,218.7110,0,U,60493,999,10392,.29889532E-3,.8622E-4,0
FLOCK 4BE-22,2024-149AC,2026-06-28T22:52:24.402144,15.41509001,.00034173,97.3740,263.6273,202.8728,157.2367,0,U,60494,999,10411,.34334179E-3,.14323E-3,0
FLOCK 4BE-34,2024-149AD,2026-06-28T21:43:46.864128,15.41490330,.00032321,97.3787,264.4090,210.6576,149.4483,0,U,60495,999,10413,.35484893E-3,.14798E-3,0
TYCHE,2024-149AE,2026-06-28T22:32:21.658848,15.25847809,.0001852,97.3758,257.5984,211.9420,148.1706,0,U,60496,999,10369,.16280398E-3,.4094E-4,0
FLOCK 4BE-32,2024-149AF,2026-06-28T16:07:06.935520,15.42535557,.00034405,97.3728,263.7248,208.1456,151.9606,0,U,60497,999,10410,.40971321E-3,.17712E-3,0
NUSAT-48 (HENRIETTA LEAVITT),2024-149AG,2026-06-28T11:19:34.085856,15.30048812,.0003049,97.3927,260.9129,217.6266,142.4762,0,U,60498,999,10386,.29835908E-3,.8604E-4,0
FLOCK 4BE-30,2024-149AH,2026-06-28T18:05:58.638624,15.59578881,.00055686,97.3771,265.6851,222.8111,137.2713,0,U,60499,999,10357,.18634981E-2,.150626E-2,0
NUSAT-49 (KLARA DAN VON NEUMANN),2024-149AJ,2026-06-28T17:03:49.241376,15.30129568,.00008871,97.3786,260.9193,223.7489,136.3681,0,U,60500,999,10389,.29756464E-3,.8601E-4,0
FLOCK 4BE-11,2024-149AK,2026-06-28T11:10:30.851904,15.43339390,.00035544,97.3706,263.7576,208.7838,151.3214,0,U,60501,999,10409,.35912084E-3,.15935E-3,0
YAM-7,2024-149AN,2026-06-28T22:41:50.861184,15.31974303,.00021259,97.3788,260.1481,232.6354,127.4694,0,U,60504,999,10385,.2211127E-3,.6748E-4,0
FLOCK 4BE-24,2024-149AP,2026-06-28T21:43:26.519520,15.43499158,.00036707,97.3723,264.4629,221.4745,138.6224,0,U,60505,999,10417,.43616173E-3,.19486E-3,0
LUR-1,2024-149AQ,2026-06-28T22:46:54.090624,15.30252963,.00026039,97.3742,258.6927,253.7205,106.3750,0,U,60506,999,10377,.22430671E-3,.6489E-4,0
TANAGER-1,2024-149AR,2026-06-28T19:39:37.859616,15.44745883,.00024717,97.2374,274.0367,242.7267,117.3730,0,U,60507,999,10483,.971663E-5,.369E-5,0
EAGLEEYE,2024-149AS,2026-06-28T19:40:20.007264,15.73125477,.00049991,97.3726,273.8172,212.2047,147.8912,0,U,60508,999,10476,.70236209E-3,.96923E-3,0
