ROCK                    
1 60474U 24149G   26179.74915202  .00014028  00000+0  35340-3 0  9998
2 60474  97.3782 263.2241 0002095 164.3844 195.7467 15.40005062104046
CONNECTA IOT-3          
1 60475U 24149H   26179.93898471  .00003771  00000+0  16033-3 0  9999
2 60475  97.3737 255.7815 0002370 189.9084 170.2107 15.23639448103595
QUBE                    
1 60476U 24149J   26179.81317339  .00024596  00000+0  47573-3 0  9997
2 60476  97.3784 266.4737 0002688 165.0830 195.0500 15.47746307104262
WREN-1                  
1 60478U 24149L   26179.75200816  .00019627  00000+0  46178-3 0  9992
2 60478  97.3775 263.9884 0004243 202.1844 157.9221 15.42001226104105
TOMORROW-S1             
1 60479U 24149M   26179.95252077  .00007161  00000+0  22794-3 0  9999
2 60479  97.3755 260.3883 0002780 171.7261 188.4028 15.32880389103895
FLOCK 4BE-18            
1 60480U 24149N   26179.69657803  .00016400  00000+0  38361-3 0  9991
2 60480  97.3733 263.5482 0003931 192.9321 167.1826 15.42216048104082
FLOCK 4BE-7             
1 60481U 24149P   26179.71522112  .00020119  00000+0  49294-3 0  9998
2 60481  97.3764 262.8848 0003157 192.3147 167.8022 15.40772881104024
TOMORROW-S2             
1 60485U 24149T   26179.72166690  .00007274  00000+0  23128-3 0  9993
2 60485  97.3824 260.6579 0002263 195.3646 164.7528 15.32914138103857
FLOCK 4BE-36            
1 60486U 24149U   26179.72651917  .00013855  00000+0  31554-3 0  9999
2 60486  97.3750 264.2950 0003373 201.7978 158.3127 15.43057428104130
FLOCK 4BE-25            
1 60487U 24149V   26179.53150572  .00012845  00000+0  33330-3 0  9992
2 60487  97.3805 262.7600 0002437 181.6262 178.4976 15.39120394103984
FLOCK 4BE-31            
1 60488U 24149W   26179.74690826  .00019208  00000+0  41532-3 0  9990
2 60488  97.3807 265.2067 0002601 194.1921 165.9255 15.44532703104165
FLOCK 4BE-20            
1 60489U 24149X   26179.17546333  .00015270  00000+0  40583-3 0  9991
2 60489  97.3699 261.2520 0003505 202.2079 157.9015 15.38339947103908
FLOCK 4BE-23            
1 60490U 24149Y   26179.75405082  .00012588  00000+0  33925-3 0  9993
2 60490  97.3788 262.2166 0003125 204.9413 155.1681 15.37955249103979
FLOCK 4BE-17            
1 60492U 24149AA  26179.72223976  .00014110  00000+0  35426-3 0  9993
2 60492  97.3781 263.1840 0003112 190.9686 169.1493 15.40105977104038
NUSAT-50 (NANCY ROMAN)  
1 60493U 24149AB  26179.94112877  .00008622  00000+0  29890-3 0  9994
2 60493  97.3795 261.1158 0004374 141.4444 218.7110 15.30054834103926
FLOCK 4BE-22            
1 60494U 24149AC  26179.95306021  .00014323  00000+0  34334-3 0  9996
2 60494  97.3740 263.6273 0003417 202.8728 157.2367 15.41509001104112
FLOCK 4BE-34            
1 60495U 24149AD  26179.90540352  .00014798  00000+0  35485-3 0  9993
2 60495  97.3787 264.4090 0003232 210.6576 149.4483 15.41490330104131
TYCHE                   
1 60496U 24149AE  26179.93913957  .00004094  00000+0  16280-3 0  9992
2 60496  97.3758 257.5984 0001852 211.9420 148.1706 15.25847809103696
FLOCK 4BE-32            
1 60497U 24149AF  26179.67160805  .00017712  00000+0  40971-3 0  9995
2 60497  97.3728 263.7248 0003440 208.1456 151.9606 15.42535557104109
NUSAT-48 (HENRIETTA LE*)
1 60498U 24149AG  26179.47192229  .00008604  00000+0  29836-3 0  9996
2 60498  97.3927 260.9129 0003049 217.6266 142.4762 15.30048812103867
FLOCK 4BE-30            
1 60499U 24149AH  26179.75415091  .00150626  00000+0  18635-2 0  9999
2 60499  97.3771 265.6851 0005568 222.8111 137.2713 15.59578881103575
NUSAT-49 (KLARA DAN VO*)
1 60500U 24149AJ  26179.71098659  .00008601  00000+0  29756-3 0  9997
2 60500  97.3786 260.9193 0000887 223.7489 136.3681 15.30129568103890
FLOCK 4BE-11            
1 60501U 24149AK  26179.46563486  .00015935  00000+0  35912-3 0  9994
2 60501  97.3706 263.7576 0003554 208.7838 151.3214 15.43339390104096
YAM-7                   
1 60504U 24149AN  26179.94572756  .00006748  00000+0  22111-3 0  9999
2 60504  97.3788 260.1481 0002125 232.6354 127.4694 15.31974303103852
FLOCK 4BE-24            
1 60505U 24149AP  26179.90516805  .00019486  00000+0  43616-3 0  9995
2 60505  97.3723 264.4629 0003670 221.4745 138.6224 15.43499158104171
LUR-1                   
1 60506U 24149AQ  26179.94923716  .00006489  00000+0  22431-3 0  9994
2 60506  97.3742 258.6927 0002603 253.7205 106.3750 15.30252963103771
TANAGER-1               
1 60507U 24149AR  26179.81918819  .00000369  00000+0  97166-5 0  9999
2 60507  97.2374 274.0367 0002471 242.7267 117.3730 15.44745883104832
EAGLEEYE                
1 60508U 24149AS  26179.81967601  .00096923  00000+0  70236-3 0  9991
2 60508  97.3726 273.8172 0004999 212.2047 147.8912 15.73125477104766
